[{"OBJECT_NAME":"STARLINK-4388","OBJECT_ID":"2022-105D","EPOCH":"2026-03-09T15:52:02.872704","MEAN_MOTION":15.05648779,"ECCENTRICITY":0.00023933,"INCLINATION":97.6022,"RA_OF_ASC_NODE":311.1928,"ARG_OF_PERICENTER":81.8615,"MEAN_ANOMALY":278.2883,"EPHEMERIS_TYPE":0,"CLASSIFICATION_TYPE":"U","NORAD_CAT_ID":53651,"ELEMENT_SET_NO":999,"REV_AT_EPOCH":19329,"BSTAR":5.6877377e-5,"MEAN_MOTION_DOT":7.6e-6,"MEAN_MOTION_DDOT":0},{"OBJECT_NAME":"OBJECT B","OBJECT_ID":"2025-226B","EPOCH":"2026-03-09T23:02:31.139232","MEAN_MOTION":15.09715314,"ECCENTRICITY":0.00204156,"INCLINATION":97.6443,"RA_OF_ASC_NODE":147.8366,"ARG_OF_PERICENTER":114.3969,"MEAN_ANOMALY":245.9393,"EPHEMERIS_TYPE":0,"CLASSIFICATION_TYPE":"U","NORAD_CAT_ID":65939,"ELEMENT_SET_NO":999,"REV_AT_EPOCH":2260,"BSTAR":0.00038297064,"MEAN_MOTION_DOT":6.14e-5,"MEAN_MOTION_DDOT":0}]
